API VERSION: 1.2
API SOURCE: NASA/JPL Horizons API



*******************************************************************************
Ephemeris / API_USER Mon Oct 30 14:06:31 2023 Pasadena, USA      / Horizons    
*******************************************************************************
Target body name: Moon (301)                      {source: DE441}
Center body name: Earth (399)                     {source: DE441}
Center-site name: GEOCENTRIC
*******************************************************************************
Start time      : A.D. 2066-Jan-01 00:00:00.0000 UT      
Stop  time      : A.D. 2067-Jan-01 00:00:00.0000 UT      
Step-size       : 60 minutes
*******************************************************************************
Target pole/equ : MOON_ME                         {East-longitude positive}
Target radii    : 1737.4, 1737.4, 1737.4 km       {Equator_a, b, pole_c}       
Center geodetic : 0.0, 0.0, -6378.137             {E-lon(deg),Lat(deg),Alt(km)}
Center cylindric: 0.0, 0.0, 0.0                   {E-lon(deg),Dxy(km),Dz(km)}
Center pole/equ : ITRF93                          {East-longitude positive}
Center radii    : 6378.137, 6378.137, 6356.752 km {Equator_a, b, pole_c}       
Target primary  : Earth
Vis. interferer : MOON (R_eq= 1737.400) km        {source: DE441}
Rel. light bend : Sun                             {source: DE441}
Rel. lght bnd GM: 1.3271E+11 km^3/s^2                                          
Atmos refraction: NO (AIRLESS)
RA format       : HMS
Time format     : CAL 
Calendar mode   : Mixed Julian/Gregorian
EOP file        : eop.231027.p240119                                           
EOP coverage    : DATA-BASED 1962-JAN-20 TO 2023-OCT-27. PREDICTS-> 2024-JAN-18
Units conversion: 1 au= 149597870.700 km, c= 299792.458 km/s, 1 day= 86400.0 s 
Table cut-offs 1: Elevation (-90.0deg=NO ),Airmass (>38.000=NO), Daylight (NO )
Table cut-offs 2: Solar elongation (  0.0,180.0=NO ),Local Hour Angle( 0.0=NO )
Table cut-offs 3: RA/DEC angular rate (     0.0=NO )                           
Table format    : Comma Separated Values (spreadsheet)
***********************************************************************************************************************************************
 Date__(UT)__HR:MN, , , R.A._(ICRF), DEC__(ICRF),      Illu%,  ObsSub-LON, ObsSub-LAT,  SunSub-LON, SunSub-LAT,    NP.ang,  NP.dist,     S-T-O,
***********************************************************************************************************************************************
$$SOE
 2066-May-25 12:00, , , 05 08 51.10, +24 41 05.1,    1.66847,    0.245448,  -2.346630,  165.464114,   0.924482,  353.8935, -881.919,  165.1622,
 2066-May-25 13:00, , , 05 11 01.51, +24 41 06.5,    1.76948,    0.187493,  -2.292089,  164.953934,   0.923816,  354.1015, -881.902,  164.7169,
 2066-May-25 14:00, , , 05 13 11.90, +24 41 00.9,    1.87352,    0.129424,  -2.237384,  164.443756,   0.923148,  354.3098, -881.887,  164.2711,
 2066-May-25 15:00, , , 05 15 22.26, +24 40 48.2,    1.98057,    0.071244,  -2.182520,  163.933579,   0.922479,  354.5185, -881.873,  163.8248,
 2066-May-25 16:00, , , 05 17 32.60, +24 40 28.5,    2.09063,    0.012957,  -2.127499,  163.423405,   0.921809,  354.7276, -881.862,  163.3782,
 2066-May-25 17:00, , , 05 19 42.91, +24 40 01.8,    2.20369,  359.954564,  -2.072327,  162.913234,   0.921137,  354.9370, -881.852,  162.9313,
 2066-May-25 18:00, , , 05 21 53.18, +24 39 28.0,    2.31974,  359.896070,  -2.017007,  162.403064,   0.920464,  355.1466, -881.845,  162.4840,
 2066-May-25 19:00, , , 05 24 03.41, +24 38 47.2,    2.43878,  359.837478,  -1.961543,  161.892898,   0.919789,  355.3566, -881.839,  162.0365,
 2066-May-25 20:00, , , 05 26 13.60, +24 37 59.3,    2.56079,  359.778792,  -1.905938,  161.382733,   0.919114,  355.5668, -881.835,  161.5886,
 2066-May-25 21:00, , , 05 28 23.74, +24 37 04.5,    2.68576,  359.720014,  -1.850198,  160.872572,   0.918436,  355.7772, -881.834,  161.1406,
 2066-May-25 22:00, , , 05 30 33.83, +24 36 02.6,    2.81370,  359.661148,  -1.794324,  160.362413,   0.917758,  355.9879, -881.834,  160.6923,
 2066-May-25 23:00, , , 05 32 43.88, +24 34 53.8,    2.94459,  359.602197,  -1.738322,  159.852257,   0.917078,  356.1987, -881.836,  160.2438,
 2066-May-26 00:00, , , 05 34 53.86, +24 33 37.9,    3.07842,  359.543166,  -1.682195,  159.342104,   0.916396,  356.4098, -881.840,  159.7951,
 2066-May-26 01:00, , , 05 37 03.79, +24 32 15.2,    3.21518,  359.484056,  -1.625947,  158.831954,   0.915713,  356.6209, -881.847,  159.3462,
 2066-May-26 02:00, , , 05 39 13.66, +24 30 45.4,    3.35486,  359.424873,  -1.569582,  158.321807,   0.915029,  356.8322, -881.855,  158.8971,
 2066-May-26 03:00, , , 05 41 23.46, +24 29 08.7,    3.49747,  359.365619,  -1.513104,  157.811662,   0.914343,  357.0436, -881.865,  158.4479,
 2066-May-26 04:00, , , 05 43 33.19, +24 27 25.1,    3.64297,  359.306298,  -1.456517,  157.301522,   0.913656,  357.2551, -881.878,  157.9986,
 2066-May-26 05:00, , , 05 45 42.85, +24 25 34.5,    3.79138,  359.246914,  -1.399824,  156.791384,   0.912968,  357.4667, -881.892,  157.5491,
 2066-May-26 06:00, , , 05 47 52.44, +24 23 37.0,    3.94267,  359.187470,  -1.343030,  156.281250,   0.912278,  357.6783, -881.909,  157.0994,
 2066-May-26 07:00, , , 05 50 01.95, +24 21 32.7,    4.09684,  359.127970,  -1.286138,  155.771119,   0.911586,  357.8899, -881.927,  156.6497,
 2066-May-26 08:00, , , 05 52 11.38, +24 19 21.4,    4.25389,  359.068418,  -1.229152,  155.260992,   0.910893,  358.1015, -881.948,  156.1998,
 2066-May-26 09:00, , , 05 54 20.72, +24 17 03.3,    4.41379,  359.008817,  -1.172077,  154.750868,   0.910199,  358.3131, -881.970,  155.7498,
 2066-May-26 10:00, , , 05 56 29.98, +24 14 38.4,    4.57654,  358.949171,  -1.114916,  154.240748,   0.909503,  358.5247, -881.995,  155.2997,
 2066-May-26 11:00, , , 05 58 39.15, +24 12 06.6,    4.74213,  358.889483,  -1.057672,  153.730632,   0.908806,  358.7362, -882.022,  154.8495,
 2066-May-26 12:00, , , 06 00 48.22, +24 09 28.1,    4.91056,  358.829759,  -1.000351,  153.220519,   0.908107,  358.9476, -882.051,  154.3993,
 2066-May-26 13:00, , , 06 02 57.20, +24 06 42.7,    5.08180,  358.770001,  -0.942955,  152.710411,   0.907407,  359.1590, -882.082,  153.9489,
 2066-May-26 14:00, , , 06 05 06.09, +24 03 50.6,    5.25586,  358.710213,  -0.885488,  152.200306,   0.906705,  359.3702, -882.115,  153.4984,
 2066-May-26 15:00, , , 06 07 14.87, +24 00 51.7,    5.43271,  358.650400,  -0.827955,  151.690206,   0.906002,  359.5813, -882.151,  153.0478,
 2066-May-26 16:00, , , 06 09 23.55, +23 57 46.1,    5.61236,  358.590565,  -0.770359,  151.180109,   0.905298,  359.7922, -882.188,  152.5972,
 2066-May-26 17:00, , , 06 11 32.12, +23 54 33.8,    5.79479,  358.530712,  -0.712705,  150.670017,   0.904591,    0.0029, -882.228,  152.1464,
 2066-May-26 18:00, , , 06 13 40.58, +23 51 14.7,    5.97999,  358.470845,  -0.654995,  150.159929,   0.903884,    0.2135, -882.270,  151.6956,
 2066-May-26 19:00, , , 06 15 48.94, +23 47 49.1,    6.16794,  358.410969,  -0.597235,  149.649845,   0.903175,    0.4238, -882.314,  151.2447,
 2066-May-26 20:00, , , 06 17 57.17, +23 44 16.7,    6.35865,  358.351086,  -0.539427,  149.139766,   0.902464,    0.6339, -882.360,  150.7937,
 2066-May-26 21:00, , , 06 20 05.30, +23 40 37.8,    6.55209,  358.291202,  -0.481576,  148.629691,   0.901752,    0.8438, -882.409,  150.3426,
 2066-May-26 22:00, , , 06 22 13.30, +23 36 52.3,    6.74827,  358.231321,  -0.423686,  148.119621,   0.901038,    1.0534, -882.460,  149.8915,
 2066-May-26 23:00, , , 06 24 21.19, +23 33 00.1,    6.94716,  358.171446,  -0.365760,  147.609556,   0.900323,    1.2626, -882.513,  149.4403,
 2066-May-27 00:00, , , 06 26 28.95, +23 29 01.5,    7.14875,  358.111582,  -0.307802,  147.099495,   0.899606,    1.4716, -882.568,  148.9890,
 2066-May-27 01:00, , , 06 28 36.59, +23 24 56.3,    7.35304,  358.051733,  -0.249817,  146.589439,   0.898887,    1.6803, -882.625,  148.5376,
 2066-May-27 02:00, , , 06 30 44.10, +23 20 44.6,    7.56002,  357.991903,  -0.191807,  146.079388,   0.898168,    1.8886, -882.685,  148.0861,
 2066-May-27 03:00, , , 06 32 51.48, +23 16 26.5,    7.76966,  357.932097,  -0.133778,  145.569341,   0.897446,    2.0966, -882.748,  147.6345,
 2066-May-27 04:00, , , 06 34 58.73, +23 12 01.8,    7.98197,  357.872318,  -0.075732,  145.059300,   0.896723,    2.3042, -882.812,  147.1829,
 2066-May-27 05:00, , , 06 37 05.84, +23 07 30.8,    8.19693,  357.812572,  -0.017674,  144.549264,   0.895999,    2.5114, -882.879,  146.7312,
 2066-May-27 06:00, , , 06 39 12.82, +23 02 53.4,    8.41453,  357.752862,   0.040392,  144.039233,   0.895272,    2.7182,  882.948,  146.2794,
 2066-May-27 07:00, , , 06 41 19.67, +22 58 09.6,    8.63476,  357.693193,   0.098463,  143.529207,   0.894545,    2.9246,  883.020,  145.8275,
 2066-May-27 08:00, , , 06 43 26.38, +22 53 19.5,    8.85760,  357.633569,   0.156535,  143.019186,   0.893815,    3.1305,  883.094,  145.3755,
 2066-May-27 09:00, , , 06 45 32.94, +22 48 23.1,    9.08305,  357.573995,   0.214603,  142.509171,   0.893085,    3.3360,  883.170,  144.9234,
 2066-May-27 10:00, , , 06 47 39.37, +22 43 20.4,    9.31109,  357.514475,   0.272665,  141.999161,   0.892352,    3.5410,  883.249,  144.4713,
 2066-May-27 11:00, , , 06 49 45.65, +22 38 11.4,    9.54171,  357.455014,   0.330716,  141.489157,   0.891618,    3.7455,  883.331,  144.0190,
 2066-May-27 12:00, , , 06 51 51.79, +22 32 56.2,    9.77490,  357.395616,   0.388752,  140.979158,   0.890882,    3.9495,  883.414,  143.5667,
 2066-May-27 13:00, , , 06 53 57.78, +22 27 34.8,   10.01065,  357.336285,   0.446769,  140.469165,   0.890145,    4.1530,  883.501,  143.1142,
 2066-May-27 14:00, , , 06 56 03.62, +22 22 07.3,   10.24894,  357.277027,   0.504764,  139.959178,   0.889406,    4.3559,  883.590,  142.6617,
